[{"OBJECT_NAME":"STARLINK-1456","OBJECT_ID":"2020-035S","EPOCH":"2026-03-09T22:34:56.373600","MEAN_MOTION":15.50051869,"ECCENTRICITY":0.00018137,"INCLINATION":53.0504,"RA_OF_ASC_NODE":45.1204,"ARG_OF_PERICENTER":106.2167,"MEAN_ANOMALY":253.9041,"EPHEMERIS_TYPE":0,"CLASSIFICATION_TYPE":"U","NORAD_CAT_ID":45673,"ELEMENT_SET_NO":999,"REV_AT_EPOCH":31906,"BSTAR":0.00055085133,"MEAN_MOTION_DOT":0.00031126,"MEAN_MOTION_DDOT":0},{"OBJECT_NAME":"FLOCK 4G-16","OBJECT_ID":"2025-009AF","EPOCH":"2026-03-09T16:24:08.859168","MEAN_MOTION":15.48160181,"ECCENTRICITY":0.00015351,"INCLINATION":97.3918,"RA_OF_ASC_NODE":155.5159,"ARG_OF_PERICENTER":253.888,"MEAN_ANOMALY":106.2201,"EPHEMERIS_TYPE":0,"CLASSIFICATION_TYPE":"U","NORAD_CAT_ID":62638,"ELEMENT_SET_NO":999,"REV_AT_EPOCH":6403,"BSTAR":0.0012441051,"MEAN_MOTION_DOT":0.00065741,"MEAN_MOTION_DDOT":0}]
